# From MPEC 2023-K53
C/2020 F2 (ATLAS),h,07/14.8885/2022,163.5883,250.2896,48.3280,1.005358,8.816624,2000,4.5,4.0
# From MPEC 2021-O56
C/2020 F3 (NEOWISE),e,129.1149,61.0766,37.3635,359.0635,0.0001449,0.99917642,0.0000,07/03.7380/2020,2000,g  7.5,5.2
# From MPEC 2023-C45
C/2020 F5 (MASTER),e,52.2073,350.5011,310.6795,177.5245,0.0004167,0.97564012,0.0000,03/17.5669/2021,2000,g  6.5,3.2
# From MPEC 2020-L06
C/2020 F6 (PANSTARRS),e,174.5830,207.9074,344.5489,400.3945,0.0001230,0.99124497,0.0000,04/11.6964/2020,2000,g 14.5,2.8
# From MPEC 2023-J95
C/2020 F7 (Lemmon),e,93.9511,321.8698,227.9504,583.4549,0.0000699,0.99086111,0.0000,11/13.7413/2021,2000,g  7.0,4.0
# From MPEC 2023-J29
C/2020 F8 (SWAN),h,05/27.2970/2020,110.6398,259.8974,68.0907,1.000203,0.429478,2000,10.0,4.0
# From MPEC 2020-L06
P/2020 G1 (Pimentel),e,18.5103,240.1267,207.5939,3.608328,0.1437954,0.86038621,166.9986,05/23.0/2023,2000,g 17.0,4.0
# From MPEC 2022-YB4
C/2020 H2 (Pruyne),e,124.9120,277.6652,26.6671,189.5337,0.0003777,0.99561391,0.0000,04/27.8190/2020,2000,g 14.0,3.2
# From MPEC 2020-HM1
C/2020 H3 (Wierzchos),p,06/05.7162/2020,62.5292,30.4456,2.300288,270.6227,2000,13.5,4.0
# From MPEC 2020-L06
C/2020 H4 (Leonard),e,84.4969,307.6455,117.5439,47.85438,0.0029773,0.98067925,0.0000,08/29.6396/2020,2000,g 15.0,3.2
# From MPEC 2023-K53
C/2020 H5 (Robinson),e,70.2550,210.6275,326.3391,3906,0.0000040,0.99760838,0.0000,12/10.7937/2020,2000,g  5.0,4.0
# From MPEC 2023-K53
C/2020 H6 (ATLAS),e,79.9778,213.7193,20.3033,9164,0.0000011,0.99948693,0.0000,09/30.6874/2021,2000,g  8.0,3.2
# From MPEC 2020-KB7
C/2020 H7 (Lemmon),e,135.9235,323.5194,82.6780,1405,0.0000187,0.99685380,0.0000,06/02.9510/2020,2000,g 11.0,4.0
# From MPEC 2021-N06
C/2020 H8 (PANSTARRS),e,99.6888,68.4270,128.9368,597.6170,0.0000675,0.99217768,0.0000,06/04.5109/2020,2000,g 10.5,4.0
# From MPEC 2022-ED3
A/2020 H9,e,137.8789,213.1811,312.8314,370.8367,0.0001380,0.99305967,0.0000,12/21.6449/2019,2000,g 18.0,2.0
# From MPEC 2023-HN7
C/2020 H11 (PANSTARRS-Lemmon),h,09/15.1641/2020,151.4015,303.0342,91.4730,1.002235,7.627601,2000,8.5,4.0
# From MPEC 2023-K53
C/2020 J1 (SONEAR),h,04/18.6290/2021,142.3052,226.6044,341.7415,1.000770,3.353234,2000,8.5,3.2
# From MPEC 2023-K53
C/2020 K1 (PANSTARRS),e,89.6709,94.3555,213.9845,136380,0.0000000,0.99997746,0.0000,05/09.0846/2023,2000,g  5.5,4.0
# From MPEC 2021-N06
C/2020 K2 (PANSTARRS),h,08/06.3503/2020,91.0273,288.3950,67.3508,1.003866,8.879919,2000,10.8,4.0
# From MPEC 2020-KF9
C/2020 K3 (Leonard),p,06/01.0032/2020,129.0152,64.4924,1.583069,28.3546,2000,14.5,4.0
# From MPEC 2020-L06
C/2020 K4 (PANSTARRS),e,125.5831,264.1967,308.8619,23.96346,0.0084019,0.92682202,9.8726,05/23.0/2023,2000,g 16.5,4.0
# From MPEC 2021-R75
C/2020 K5 (PANSTARRS),h,06/05.4538/2021,67.1145,86.1617,249.6122,1.001365,1.536807,2000,11.0,4.0
# From MPEC 2023-J29
C/2020 K6 (Rankin),h,09/15.8287/2021,103.6495,291.5543,44.3365,1.003666,5.868858,2000,8.0,4.0
# From MPEC 2023-A50
C/2020 K7 (PANSTARRS),e,32.0420,286.0808,358.2534,98.56329,0.0010072,0.93513072,1.3123,05/23.0/2023,2000,g  8.0,4.0
# From MPEC 2021-P47
C/2020 K8 (Catalina-ATLAS),h,09/14.8591/2020,31.4250,181.5336,259.9604,1.000186,0.471932,2000,15.0,3.2
# From MPEC 2021-BE3
P/2020 K9 (Lemmon-PANSTARRS),e,23.2079,166.2443,197.0637,4.202955,0.1143858,0.32125410,94.8942,05/23.0/2023,2000,g 12.5,4.0
# From MPEC 2023-C45
P/2020 M1 (PANSTARRS),e,8.5374,142.6259,72.6503,5.317143,0.0803871,0.47367617,100.0120,05/23.0/2023,2000,g 14.5,4.0
# From MPEC 2022-H30
C/2020 M3 (ATLAS),e,23.4773,71.1581,328.5633,27.10435,0.0069847,0.95319739,6.5594,05/23.0/2023,2000,g 14.5,4.0
# From MPEC 2023-B57
A/2020 M4,h,11/24.1669/2020,160.1250,348.6230,104.6340,1.001040,5.950692,2000,14.5,2.0
# From MPC xxxxx
P/2020 MK4 (PANSTARRS),e,6.7980,0.7154,102.2536,6.205807,0.0637539,0.01190144,260.3153,05/23.0/2023,2000,g  8.0,4.0
# From MPEC 2023-FK0
C/2020 M5 (ATLAS),h,08/19.8576/2021,93.2186,352.0894,126.3031,1.000395,3.002768,2000,9.0,4.0
# From MPEC 2022-GA9
C/2020 N1 (PANSTARRS),h,03/12.3591/2021,29.7265,279.9253,186.7611,1.000473,1.318504,2000,12.5,4.0
# From MPEC 2021-P47
C/2020 N2 (ATLAS),e,161.0336,257.1610,331.3139,104.5406,0.0009221,0.98285299,0.0000,08/24.1005/2020,2000,g 16.0,3.2
# From MPEC 2023-K53
C/2020 O2 (Amaral),h,08/28.5045/2021,71.7605,256.7733,10.3027,1.001562,4.862382,2000,8.0,3.2
# From MPEC 2023-C45
P/2020 O3 (PANSTARRS),e,8.4443,266.8185,81.6293,4.647642,0.0983683,0.10309781,82.9154,05/23.0/2023,2000,g 12.0,4.0
# From MPEC 2021-BE3
C/2020 P1 (NEOWISE),h,10/20.4470/2020,45.1761,53.4852,8.8909,1.000320,0.340988,2000,14.0,3.2
# From MPEC 2023-K53
C/2020 P3 (ATLAS),h,04/21.3919/2021,61.8892,19.4658,82.2768,1.001517,6.812591,2000,6.0,4.0
# From MPEC 2022-PB4
C/2020 PV6 (PANSTARRS),e,128.2256,329.1490,71.3833,42.06603,0.0036125,0.94544357,2.1816,05/23.0/2023,2000,g 10.0,4.0
# From MPEC 2022-L66
C/2020 Q1 (Borisov),e,142.9431,52.3882,9.9589,60.93747,0.0020719,0.97837074,0.0000,08/14.4236/2020,2000,g 14.0,4.0
# From MPEC 2023-CD7
C/2020 Q2 (PANSTARRS),e,3.3362,179.8287,118.2647,10.64548,0.0283763,0.49197127,34.3149,05/23.0/2023,2000,g 12.0,3.2
# From MPEC 2022-X67
C/2020 R2 (PANSTARRS),e,53.2282,195.0935,211.7955,410.0165,0.0001187,0.98855431,0.0000,02/24.9140/2022,2000,g  9.0,4.0
# From MPEC 2022-K19
C/2020 R4 (ATLAS),e,164.4508,323.2719,46.6843,99.79380,0.0009887,0.98971058,0.0000,03/02.1784/2021,2000,g 13.5,4.0
# From MPEC 2023-C45
P/2020 R5 (PANSTARRS),e,11.4448,272.9682,82.6263,4.987628,0.0884836,0.31446264,96.3176,05/23.0/2023,2000,g  9.5,6.0
# From MPEC 2021-Y10
C/2020 R6 (Rankin),e,82.8133,12.1788,271.9919,314.4247,0.0001768,0.99003207,0.0000,09/08.4824/2019,2000,g 11.0,4.0
# From MPEC 2023-K53
C/2020 R7 (ATLAS),h,09/16.2517/2022,114.8965,268.2845,347.8414,1.000238,2.955981,2000,7.0,3.2
# From MPEC 2021-BE3
P/2020 S1 (PANSTARRS),e,13.7277,129.4619,255.0339,5.993354,0.0671737,0.50772863,57.4634,05/23.0/2023,2000,g 14.0,4.0
# From MPEC 2022-ST7
C/2020 S2 (PANSTARRS),e,22.4043,197.6626,202.3477,10.22363,0.0301506,0.82813693,26.5866,05/23.0/2023,2000,g 17.0,4.0
# From MPEC 2022-C56
C/2020 S3 (Erasmus),e,20.0182,222.5964,350.0940,151.8942,0.0005265,0.99739221,0.0000,12/12.0149/2020,2000,g 13.5,3.2
# From MPEC 2023-K53
C/2020 S4 (PANSTARRS),h,02/09.2409/2023,20.5689,117.7201,20.9926,1.001337,3.369738,2000,8.5,3.2
# From MPEC 2021-BE3
P/2020 S5 (PANSTARRS),e,12.3469,315.9986,53.2297,4.054482,0.1207260,0.33844813,122.7657,05/23.0/2023,2000,g 14.5,4.0
# From MPEC 2021-BE3
P/2020 S7 (PANSTARRS),e,16.0867,328.0295,40.5931,5.030939,0.0873435,0.41065165,79.9408,05/23.0/2023,2000,g 14.5,4.0
# From MPEC 2021-P47
C/2020 S8 (Lemmon),e,108.5275,24.0680,160.2718,262.3844,0.0002319,0.99100051,0.0000,04/10.8171/2021,2000,g 12.5,4.0
# From MPEC 2022-ST7
C/2020 T2 (Palomar),e,27.8550,82.9675,150.5195,304.5834,0.0001854,0.99324515,0.0000,07/10.9931/2021,2000,g 11.0,3.2
# From MPEC 2021-N06
P/2020 T3 (PANSTARRS),e,7.2991,73.9882,357.0411,3.516965,0.1494349,0.59211863,127.3449,05/23.0/2023,2000,g 18.0,3.2
# From MPEC 2021-N06
C/2020 T4 (PANSTARRS),h,07/05.3479/2021,83.8410,50.6152,79.6063,1.000269,2.191343,2000,13.0,3.2
# From MPEC 2021-BE3
C/2020 T5 (Lemmon),e,66.5586,237.8409,90.3372,742.5968,0.0000487,0.99745284,0.0000,10/09.2985/2020,2000,g 16.0,4.0
# From MPEC 2021-N06
P/2020 U2 (PANSTARRS),e,6.4194,342.8820,84.6504,3.778056,0.1342152,0.51114108,117.8297,05/23.0/2023,2000,g 18.0,4.0
# From MPEC 2021-W31
C/2020 U3 (Rankin),e,30.1566,282.6386,124.3496,66.57200,0.0018145,0.96579194,1.5166,05/23.0/2023,2000,g 15.0,4.0
# From MPEC 2023-CD7
C/2020 U4 (PANSTARRS),h,04/09.4098/2022,167.0219,120.3201,70.0112,1.001389,5.357822,2000,7.0,4.0
# From MPEC 2022-YB4
C/2020 U5 (PANSTARRS),e,97.2738,107.3263,75.4349,3792,0.0000042,0.99900948,0.0000,04/27.9669/2022,2000,g  8.0,4.0
# From MPEC 2023-HD1
C/2020 V2 (ZTF),h,05/08.5587/2023,131.6119,212.3714,162.4271,1.001209,2.227842,2000,7.8,4.0
# From MPEC 2023-D72
P/2020 V3 (PANSTARRS),e,23.0330,198.2524,249.3765,8.386142,0.0405846,0.25698603,33.7888,05/23.0/2023,2000,g  8.3,4.0
# From MPEC 2023-K53
P/2020 V4 (Rankin),e,14.2443,203.4830,257.0389,9.369266,0.0343673,0.45048908,23.1528,05/23.0/2023,2000,g  9.0,4.0
# From MPEC 2021-BE3
P/2020 W1 (Rankin),e,10.7867,124.2723,265.1656,7.215105,0.0508558,0.26632538,57.9392,05/23.0/2023,2000,g 10.0,4.0
# From MPEC 2021-BE3
C/2020 W5 (Lemmon),h,11/30.1218/2020,88.5976,75.4680,24.5030,1.000817,3.365467,2000,15.0,4.0
# From MPEC 2023-K53
P/2020 WJ5 (Lemmon),e,22.2931,177.8085,338.1675,6.015902,0.0667964,0.17137177,46.1673,05/23.0/2023,2000,g  8.5,4.0
# From MPEC 2021-P47
P/2020 X1 (ATLAS),e,31.6930,55.9899,323.4382,4.531026,0.1021902,0.36544189,105.8813,05/23.0/2023,2000,g 13.0,4.0
# From MPEC 2021-U31
C/2020 X2 (ATLAS),e,18.1849,105.4185,347.3782,16.45656,0.0147637,0.76743902,13.5513,05/23.0/2023,2000,g 10.6,4.0
# From MPEC 2021-S45
C/2020 X4 (Leonard),e,80.6078,161.8833,140.3070,40.67916,0.0037988,0.87162043,3.4876,05/23.0/2023,2000,g  9.0,4.0
# From MPEC 2023-D72
C/2020 Y2 (ATLAS),e,101.3012,26.5123,266.1640,1288,0.0000213,0.99756649,0.0000,06/17.9312/2022,2000,g  6.5,4.0
# From MPEC 2021-R75
C/2020 Y3 (ATLAS),e,83.1017,191.4392,341.9495,142.5171,0.0005793,0.98599387,0.0000,12/03.3153/2020,2000,g 13.5,4.0
# From MPEC 2023-CD7
C/2021 A1 (Leonard),h,01/03.2870/2022,132.7119,255.8987,225.1137,1.000020,0.615753,2000,8.5,4.0
# From MPEC 2022-F14
C/2021 A2 (NEOWISE),e,106.9885,125.1946,338.7831,232.9599,0.0002772,0.99393840,0.0000,01/22.4166/2021,2000,g 13.5,4.0
# From MPEC 2022-ED3
C/2021 A4 (NEOWISE),e,111.5373,307.1116,204.7096,42.45927,0.0035624,0.97297517,0.0000,03/19.7424/2021,2000,g 16.0,4.0
# From MPEC 2021-BE3
P/2021 A5 (PANSTARRS),e,18.1833,328.7605,61.3518,3.047729,0.1852421,0.13989899,170.6627,05/23.0/2023,2000,g 15.0,4.0
# From MPEC 2023-HD1
C/2021 A6 (PANSTARRS),e,75.6024,164.0740,351.6369,9144,0.0000011,0.99913319,0.0000,05/03.2842/2021,2000,g  9.0,4.0
# From MPEC 2022-M88
